STARLINK-36746          
1 67733U 26026N   26064.25003472  .00015553  00000+0  28714-3 0  9996
2 67733  97.2844 118.5515 0001567  54.5333 230.4365 15.49181373  4605
STARLINK-36749          
1 67734U 26026P   26064.25003472 -.01984734  00000+0 -26665-1 0  9997
2 67734  97.2836 118.6870 0001655  82.9115 162.4336 15.61241897  4607
STARLINK-36691          
1 67735U 26026Q   26064.25003472 -.02003849  00000+0 -20297-1 0  9993
2 67735  97.2838 118.7363 0001384  59.9645 302.2944 15.68351291  4739
STARLINK-36317          
1 67736U 26026R   26064.25003472 -.02002456  00000+0 -20499-1 0  9991
2 67736  97.2840 118.7311 0001400  56.3283 293.7172 15.68091069  4601
STARLINK-36330          
1 67737U 26026S   26064.25003472 -.01998799  00000+0 -20158-1 0  9997
2 67737  97.2839 118.7393 0001352  58.5958 310.9451 15.68448836  4609
STARLINK-36327          
1 67738U 26026T   26064.25003472 -.01997775  00000+0 -19906-1 0  9990
2 67738  97.2839 118.7441 0001485  52.9513 327.6327 15.68737686  4607
STARLINK-36329          
1 67739U 26026U   26064.25003472 -.02005554  00000+0 -19147-1 0  9994
2 67739  97.2838 118.7649 0001703  55.2782  23.6890 15.69779190  4609
STARLINK-36737          
1 67740U 26026V   26064.25003472 -.02003029  00000+0 -19835-1 0  9995
2 67740  97.2839 118.7475 0001515  55.4689 335.4544 15.68896525  4609
STARLINK-36740          
1 67741U 26026W   26064.25003472 -.01993703  00000+0 -23462-1 0  9993
2 67741  97.2837 118.7402 0001406  52.1006 316.4567 15.64630392  4602
STARLINK-36693          
1 67742U 26026X   26064.25003472 -.01992479  00000+0 -22831-1 0  9992
2 67742  97.2839 118.7345 0001337  58.1225 297.1893 15.65295310  4732
STARLINK-36717          
1 67743U 26026Y   26064.25003472 -.02005348  00000+0 -21112-1 0  9995
2 67743  97.2841 118.7509 0001507  57.9546 339.1554 15.67410083  4739
STARLINK-36692          
1 67744U 26026Z   26064.25003472 -.01992283  00000+0 -22046-1 0  9995
2 67744  97.2840 118.7420 0001412  57.4515 317.4053 15.66161222  4603
2026-027A               
1 67746U 26027A   26064.28594618  .00011368  00000+0  56764-3 0  9997
2 67746  97.4902 193.3458 0009854 209.5874 150.4803 15.17609261  3199
2026-027B               
1 67747U 26027B   26064.28454769  .00011300  00000+0  56264-3 0  9991
2 67747  97.4898 193.3461 0009971 212.1959 147.8667 15.17709523  3192
2026-027C               
1 67748U 26027C   26064.28318414  .00008213  00000+0  40960-3 0  9993
2 67748  97.4908 193.3512 0010336 214.8533 145.2024 15.17744671  3198
2026-027D               
1 67749U 26027D   26064.28026296  .00013493  00000+0  66442-3 0  9997
2 67749  97.4904 193.3540 0009986 219.9418 140.1082 15.18054694  3146
2026-027E               
1 67750U 26027E   26064.28033908  .00011408  00000+0  56312-3 0  9996
2 67750  97.4915 193.3570 0009197 220.7490 139.3057 15.18016619  3199
2026-027F               
1 67751U 26027F   26064.27833252  .00018405  00000+0  89809-3 0  9997
2 67751  97.4914 193.3600 0010359 221.5482 138.4965 15.18298703  3199
2026-027G               
1 67752U 26027G   26063.22449260  .00016447  00000+0  80953-3 0  9999
2 67752  97.4907 192.3130 0009405 225.8320 134.2142 15.18028016  3039
JIELONG-3 R/B           
1 67753U 26027H   26064.31132041  .00439595  23772-5  64781-3 0  9998
2 67753  97.5128 194.9848 0228082 260.9278  96.6115 15.71418670  3293
JIELONG-3 DEB           
1 67754U 26027J   26064.30112046  .01958762  24498-5  12562-2 0  9999
2 67754  97.5042 195.3030 0145913 260.6585  97.8169 15.98266829  3250
2026-028A               
1 67756U 26028A   26063.32217054 -.00000020  00000+0  00000+0 0  9991
2 67756   0.4831 289.6622 0041999 229.2201 201.2580  0.99524030   206
JAM-E JAM 1             
1 67757U 26028B   26064.08614122  .00000146  00000+0  00000+0 0  9991
2 67757   0.5036 285.5776 0008844 132.3450 170.7595  1.00292745    71
KUIPER-00159            
1 67764U 26030A   26064.27208700  .00027238  00000+0  78454-3 0  9997
2 67764  51.8846 240.4669 0004618  33.1879 326.9396 15.35539800  4411
KUIPER-00160            
1 67765U 26030B   26064.27327232  .00041184  00000+0  11840-2 0  9991
2 67765  51.8816 240.4664 0004980  44.0159 316.1223 15.35391730  4416
KUIPER-00177            
1 67766U 26030C   26063.93590972  .00036981  00000+0  10344-2 0  9994
2 67766  51.8829 241.9638 0001020  14.8865 345.2152 15.36307540  4364
KUIPER-00178            
1 67767U 26030D   26064.27498033  .00043464  00000+0  12502-2 0  9990
2 67767  51.8836 240.4823 0005906  33.8867 326.2496 15.35344890  4417
KUIPER-00180            
1 67768U 26030E   26063.97912338  .00023186  00000+0  74380-3 0  9998
2 67768  51.8800 242.2351 0014547  54.7162 305.5181 15.32128168  4366
KUIPER-00197            
1 67769U 26030F   26064.00307168  .00038133  00000+0  10702-2 0  9998
2 67769  51.8832 241.6633 0001317  52.9830 307.1277 15.36189547  4378
KUIPER-00198            
1 67770U 26030G   26064.20305186  .00045799  00000+0  12959-2 0  9992
2 67770  51.8811 240.7468 0002895  35.3139 324.8039 15.35847342  4401
KUIPER-00199            
1 67771U 26030H   26064.28975024  .00036779  00000+0  10995-2 0  9991
2 67771  51.8812 240.5711 0010421  48.3327 311.8549 15.34176194  4411
KUIPER-00200            
1 67772U 26030J   26064.19000388  .00042340  00000+0  11614-2 0  9994
2 67772  51.8807 240.6657 0001585 222.9726 137.1137 15.36853106  4408
KUIPER-00203            
1 67773U 26030K   26064.25003472 -.01168385  00000+0 -51408-1 0  9994
2 67773  51.8819 241.0007 0011444  48.4427 315.1366 15.24033495  2970
KUIPER-00205            
1 67774U 26030L   26064.00381564  .00035070  00000+0  98598-3 0  9993
2 67774  51.8811 241.6644 0002856   6.8945 353.2080 15.36172548  4374
KUIPER-00208            
1 67775U 26030M   26063.97646247 -.00001946  00000+0 -49138-4 0  9995
2 67775  51.8826 242.2265 0014385  47.2637 312.9556 15.32442383  4366
KUIPER-00209            
1 67776U 26030N   26064.11182499 -.00034759  00000+0 -11448-2 0  9996
2 67776  51.8813 241.6303 0013054  54.3648 305.8549 15.30687024  4388
KUIPER-00213            
1 67777U 26030P   26064.04239803  .00042850  00000+0  13424-2 0  9996
2 67777  51.8795 241.9088 0015039  51.2941 308.9386 15.32561723  4379
KUIPER-00214            
1 67778U 26030Q   26063.99751393  .00007232  00000+0  21009-3 0  9997
2 67778  51.8838 241.6296 0000321 154.9541 205.1462 15.36551093  4377
KUIPER-00215            
1 67779U 26030R   26064.28815317  .00026346  00000+0  78988-3 0  9993
2 67779  51.8841 240.5698 0010013  47.6291 312.5541 15.34260791  4411
KUIPER-00218            
1 67780U 26030S   26064.27864139  .00028965  00000+0  84816-3 0  9996
2 67780  51.8835 240.5068 0006568  39.2931 320.8531 15.34979353  4417
KUIPER-00220            
1 67781U 26030T   26064.28470784  .00050736  00000+0  14912-2 0  9997
2 67781  51.8811 240.5396 0008155  43.5950 316.5679 15.34584083  4416
KUIPER-00222            
1 67782U 26030U   26063.98077718  .00079505  00000+0  24763-2 0  9994
2 67782  51.8797 242.2438 0017700  46.4411 313.8040 15.32422890  4367
KUIPER-00223            
1 67783U 26030V   26064.29144201  .00044153  00000+0  13198-2 0  9993
2 67783  51.8831 240.5875 0012453  47.2172 312.9859 15.34070503  4412
KUIPER-00225            
1 67784U 26030W   26064.00944957  .00028249  00000+0  80935-3 0  9991
2 67784  51.8810 241.6996 0004127  26.5884 333.5314 15.35688077  4377
KUIPER-00226            
1 67785U 26030X   26064.18748256  .00045762  00000+0  14884-2 0  9993
2 67785  51.8802 241.3778 0019977  59.6438 300.6519 15.31246905  4395
KUIPER-00259            
1 67786U 26030Y   26064.28066898  .00026121  00000+0  76845-3 0  9994
2 67786  51.8812 240.5134 0008235  37.1971 322.9584 15.34877378  4411
KUIPER-00260            
1 67787U 26030Z   26064.19708511  .00038015  00000+0  10643-2 0  9998
2 67787  51.8795 240.7071 0000715  50.8386 309.2664 15.36267695  4314
KUIPER-00262            
1 67788U 26030AA  26063.99849446  .00037288  00000+0  10341-2 0  9995
2 67788  51.8807 241.6308 0000354 117.8319 242.2704 15.36571962  4373
KUIPER-00266            
1 67789U 26030AB  26064.19203403  .00027864  00000+0  91958-3 0  9999
2 67789  51.8803 241.4025 0022721  60.2103 300.1137 15.30964273  4399
KUIPER-00268            
1 67790U 26030AC  26064.00695861  .00037075  00000+0  10541-2 0  9997
2 67790  51.8846 241.6907 0002452  35.7027 324.4123 15.35796041  4373
KUIPER-00270            
1 67791U 26030AD  26064.28604115  .00036224  00000+0  10734-2 0  9999
2 67791  51.8810 240.5474 0010184  44.7076 315.4729 15.34464520  4417
KUIPER-00274            
1 67792U 26030AE  26064.18136267 -.00034790  00000+0 -11184-2 0  9995
2 67792  51.8814 241.3433 0018670  57.2432 303.0348 15.31367467  4395
KUIPER-00275            
1 67793U 26030AF  26064.28343259  .00025733  00000+0  76553-3 0  9995
2 67793  51.8842 240.5394 0008906  41.2919 318.8739 15.34528470  4415
KUIPER-00276            
1 67794U 26030AG  26064.18535151  .00031853  00000+0  10384-2 0  9998
2 67794  51.8807 241.3676 0018844  54.6829 305.5914 15.31368166  4395
KUIPER-00279            
1 67795U 26030AH  26064.27671176  .00028585  00000+0  83100-3 0  9992
2 67795  51.8803 240.4861 0006461  35.1571 324.9840 15.35214301  4419
CREW DRAGON 12          
1 67796U 26031A   26064.25394533  .00008604  00000+0  16717-3 0  9991
2 67796  51.6314  94.2866 0008160 158.8383 201.2944 15.48454548555569
STARLINK-36800          
1 67797U 26032A   26064.24659361  .00267369  00000+0  17314-2 0  9993
2 67797  97.2842 250.5102 0001245  81.7280 278.4126 15.75276978  4082
STARLINK-36798          
1 67798U 26032B   26064.25003472 -.00044860  00000+0 -30133-3 0  9997
2 67798  97.2843 250.5538 0002050  83.6987  27.9175 15.75197893  4008
STARLINK-36804          
1 67799U 26032C   26064.24483121  .00236379  00000+0  15369-2 0  9999
2 67799  97.2842 250.5128 0001341  68.3427 291.7981 15.75269995  4081
